[{"OBJECT_NAME":"STARLINK-1423","OBJECT_ID":"2020-035BF","EPOCH":"2026-03-09T06:28:42.791808","MEAN_MOTION":15.52734851,"ECCENTRICITY":0.00077383,"INCLINATION":53.0523,"RA_OF_ASC_NODE":24.0364,"ARG_OF_PERICENTER":108.2998,"MEAN_ANOMALY":251.8853,"EPHEMERIS_TYPE":0,"CLASSIFICATION_TYPE":"U","NORAD_CAT_ID":45710,"ELEMENT_SET_NO":999,"REV_AT_EPOCH":31928,"BSTAR":0.0016417081,"MEAN_MOTION_DOT":0.00104188,"MEAN_MOTION_DDOT":0},{"OBJECT_NAME":"SITRO-AIS 39","OBJECT_ID":"2024-199AV","EPOCH":"2026-03-09T21:45:33.461856","MEAN_MOTION":15.49706693,"ECCENTRICITY":0.00072488,"INCLINATION":97.3088,"RA_OF_ASC_NODE":302.8491,"ARG_OF_PERICENTER":301.349,"MEAN_ANOMALY":58.7052,"EPHEMERIS_TYPE":0,"CLASSIFICATION_TYPE":"U","NORAD_CAT_ID":61778,"ELEMENT_SET_NO":999,"REV_AT_EPOCH":11900,"BSTAR":0.00077550481,"MEAN_MOTION_DOT":0.00043134,"MEAN_MOTION_DDOT":0}]
